CCSDS_OMM_VERS = 2.0
CREATION_DATE  = 
ORIGINATOR     = 

OBJECT_NAME    = CZ-7A R/B
OBJECT_ID      = 2025-250B
CENTER_NAME    = EARTH
REF_FRAME      = TEME
TIME_SYSTEM    = UTC
MEAN_ELEMENT_THEORY = SGP/SGP4

EPOCH          = 2025-11-04T18:44:00.682080
MEAN_MOTION    = 8.58954420
ECCENTRICITY   = .3555489
INCLINATION    = 19.9260
RA_OF_ASC_NODE = 116.0532
ARG_OF_PERICENTER = 130.5060
MEAN_ANOMALY   = 266.3968

EPHEMERIS_TYPE = 0
CLASSIFICATION_TYPE = U
NORAD_CAT_ID   = 66314
ELEMENT_SET_NO = 999
REV_AT_EPOCH   = 19
BSTAR          = .51460467E-3
MEAN_MOTION_DOT = .4554797E-1
MEAN_MOTION_DDOT = -.13031307E-4

